{
  "type": "FeatureCollection",
  "features": [
    {
      "type": "Feature",
      "properties": {
        "norad_id": 42989,
        "name": "SKYSAT-C9",
        "group": "resource",
        "lat": -42.01029101710291,
        "lon": -55.899300580781485,
        "alt_km": 470.43394701184025,
        "timestamp": "2025-12-26T11:25:44.876897+00:00",
        "meta_object_name": "SKYSAT-C9",
        "meta_object_id": "2017-068C",
        "meta_epoch": "2025-12-25T21:57:34.809408",
        "meta_mean_motion": 15.36381631,
        "meta_eccentricity": 0.0010212,
        "meta_inclination": 97.4194,
        "meta_ra_of_asc_node": 130.2756,
        "meta_arg_of_pericenter": 45.4149,
        "meta_mean_anomaly": 314.7927,
        "meta_ephemeris_type": 0,
        "meta_classification_type": "U",
        "meta_norad_cat_id": 42989,
        "meta_element_set_no": 999,
        "meta_rev_at_epoch": 45610,
        "meta_bstar": 0.0003925,
        "meta_mean_motion_dot": 0.00013877,
        "meta_mean_motion_ddot": 0,
        "tle_line1": "1 42989U 17068C   25359.91498622  .00013877  00000+0  39250-3 0  9996",
        "tle_line2": "2 42989  97.4194 130.2756 0010212  45.4149 314.7927 15.36381631456101"
      },
      "geometry": {
        "type": "Point",
        "coordinates": [
          -55.899300580781485,
          -42.01029101710291
        ]
      }
    },
    {
      "type": "Feature",
      "properties": {
        "norad_id": 42990,
        "name": "SKYSAT-C8",
        "group": "resource",
        "lat": 37.1109517188029,
        "lon": 124.87350988598213,
        "alt_km": 464.09465315311354,
        "timestamp": "2025-12-26T11:25:44.876907+00:00",
        "meta_object_name": "SKYSAT-C8",
        "meta_object_id": "2017-068D",
        "meta_epoch": "2025-12-25T21:10:08.555808",
        "meta_mean_motion": 15.33208945,
        "meta_eccentricity": 9.45e-05,
        "meta_inclination": 97.4287,
        "meta_ra_of_asc_node": 129.942,
        "meta_arg_of_pericenter": 263.9401,
        "meta_mean_anomaly": 96.1733,
        "meta_ephemeris_type": 0,
        "meta_classification_type": "U",
        "meta_norad_cat_id": 42990,
        "meta_element_set_no": 999,
        "meta_rev_at_epoch": 45572,
        "meta_bstar": 0.00035524,
        "meta_mean_motion_dot": 0.00011324,
        "meta_mean_motion_ddot": 0,
        "tle_line1": "1 42990U 17068D   25359.88204347  .00011324  00000+0  35524-3 0  9998",
        "tle_line2": "2 42990  97.4287 129.9420 0000945 263.9401  96.1733 15.33208945455725"
      },
      "geometry": {
        "type": "Point",
        "coordinates": [
          124.87350988598213,
          37.1109517188029
        ]
      }
    },
    {
      "type": "Feature",
      "properties": {
        "norad_id": 42991,
        "name": "SKYSAT-C7",
        "group": "resource",
        "lat": -42.957639304869815,
        "lon": -55.410157160709055,
        "alt_km": 478.74478802147405,
        "timestamp": "2025-12-26T11:25:44.876916+00:00",
        "meta_object_name": "SKYSAT-C7",
        "meta_object_id": "2017-068E",
        "meta_epoch": "2025-12-25T21:55:18.596352",
        "meta_mean_motion": 15.32604229,
        "meta_eccentricity": 0.0006816,
        "meta_inclination": 97.4296,
        "meta_ra_of_asc_node": 131.004,
        "meta_arg_of_pericenter": 14.8643,
        "meta_mean_anomaly": 345.2798,
        "meta_ephemeris_type": 0,
        "meta_classification_type": "U",
        "meta_norad_cat_id": 42991,
        "meta_element_set_no": 999,
        "meta_rev_at_epoch": 45579,
        "meta_bstar": 0.00037042,
        "meta_mean_motion_dot": 0.00011596,
        "meta_mean_motion_ddot": 0,
        "tle_line1": "1 42991U 17068E   25359.91340968  .00011596  00000+0  37042-3 0  9991",
        "tle_line2": "2 42991  97.4296 131.0040 0006816  14.8643 345.2798 15.32604229455792"
      },
      "geometry": {
        "type": "Point",
        "coordinates": [
          -55.410157160709055,
          -42.957639304869815
        ]
      }
    },
    {
      "type": "Feature",
      "properties": {
        "norad_id": 42992,
        "name": "SKYSAT-C6",
        "group": "resource",
        "lat": -60.51480849067437,
        "lon": 145.34522421110287,
        "alt_km": 478.59958753463434,
        "timestamp": "2025-12-26T11:25:44.876925+00:00",
        "meta_object_name": "SKYSAT-C6",
        "meta_object_id": "2017-068F",
        "meta_epoch": "2025-12-25T20:01:06.090528",
        "meta_mean_motion": 15.31757076,
        "meta_eccentricity": 0.00047376,
        "meta_inclination": 97.4326,
        "meta_ra_of_asc_node": 131.3522,
        "meta_arg_of_pericenter": 46.8398,
        "meta_mean_anomaly": 313.3239,
        "meta_ephemeris_type": 0,
        "meta_classification_type": "U",
        "meta_norad_cat_id": 42992,
        "meta_element_set_no": 999,
        "meta_rev_at_epoch": 45576,
        "meta_bstar": 0.00037471515,
        "meta_mean_motion_dot": 0.0001142,
        "meta_mean_motion_ddot": 0,
        "tle_line1": "1 42992U 17068F   25359.83409827  .00011420  00000+0  37472-3 0  9996",
        "tle_line2": "2 42992  97.4326 131.3522 0004737  46.8398 313.3239 15.31757076455768"
      },
      "geometry": {
        "type": "Point",
        "coordinates": [
          145.34522421110287,
          -60.51480849067437
        ]
      }
    },
    {
      "type": "Feature",
      "properties": {
        "norad_id": 43111,
        "name": "CARTOSAT-2F",
        "group": "resource",
        "lat": 25.51589352225462,
        "lon": -118.5390841532722,
        "alt_km": 506.59325163575886,
        "timestamp": "2025-12-26T11:25:44.876934+00:00",
        "meta_object_name": "CARTOSAT-2F",
        "meta_object_id": "2018-004A",
        "meta_epoch": "2025-12-26T04:25:48.114624",
        "meta_mean_motion": 15.19253079,
        "meta_eccentricity": 0.0001522,
        "meta_inclination": 97.4294,
        "meta_ra_of_asc_node": 57.6031,
        "meta_arg_of_pericenter": 112.2672,
        "meta_mean_anomaly": 247.8724,
        "meta_ephemeris_type": 0,
        "meta_classification_type": "U",
        "meta_norad_cat_id": 43111,
        "meta_element_set_no": 999,
        "meta_rev_at_epoch": 44106,
        "meta_bstar": 0.0002401,
        "meta_mean_motion_dot": 4.993e-05,
        "meta_mean_motion_ddot": 0,
        "tle_line1": "1 43111U 18004A   25360.18458466  .00004993  00000+0  24010-3 0  9995",
        "tle_line2": "2 43111  97.4294  57.6031 0001522 112.2672 247.8724 15.19253079441061"
      },
      "geometry": {
        "type": "Point",
        "coordinates": [
          -118.5390841532722,
          25.51589352225462
        ]
      }
    },
    {
      "type": "Feature",
      "properties": {
        "norad_id": 43259,
        "name": "GAOFEN-1 02",
        "group": "resource",
        "lat": -32.98432005825624,
        "lon": 63.55811679915614,
        "alt_km": 648.5111581241881,
        "timestamp": "2025-12-26T11:25:44.876942+00:00",
        "meta_object_name": "GAOFEN-1 02",
        "meta_object_id": "2018-031A",
        "meta_epoch": "2025-12-26T05:04:26.232672",
        "meta_mean_motion": 14.76444265,
        "meta_eccentricity": 0.0002723,
        "meta_inclination": 98.0784,
        "meta_ra_of_asc_node": 58.0042,
        "meta_arg_of_pericenter": 168.4522,
        "meta_mean_anomaly": 191.675,
        "meta_ephemeris_type": 0,
        "meta_classification_type": "U",
        "meta_norad_cat_id": 43259,
        "meta_element_set_no": 999,
        "meta_rev_at_epoch": 41717,
        "meta_bstar": 0.00021656,
        "meta_mean_motion_dot": 1.455e-05,
        "meta_mean_motion_ddot": 0,
        "tle_line1": "1 43259U 18031A   25360.21141473  .00001455  00000+0  21656-3 0  9992",
        "tle_line2": "2 43259  98.0784  58.0042 0002723 168.4522 191.6750 14.76444265417174"
      },
      "geometry": {
        "type": "Point",
        "coordinates": [
          63.55811679915614,
          -32.98432005825624
        ]
      }
    },
    {
      "type": "Feature",
      "properties": {
        "norad_id": 43260,
        "name": "GAOFEN-1 03",
        "group": "resource",
        "lat": 79.24180763804885,
        "lon": 9.772282837862772,
        "alt_km": 634.3982618204718,
        "timestamp": "2025-12-26T11:25:44.876952+00:00",
        "meta_object_name": "GAOFEN-1 03",
        "meta_object_id": "2018-031B",
        "meta_epoch": "2025-12-26T06:10:31.736928",
        "meta_mean_motion": 14.76426035,
        "meta_eccentricity": 0.0001645,
        "meta_inclination": 98.078,
        "meta_ra_of_asc_node": 57.9261,
        "meta_arg_of_pericenter": 252.6735,
        "meta_mean_anomaly": 107.4295,
        "meta_ephemeris_type": 0,
        "meta_classification_type": "U",
        "meta_norad_cat_id": 43260,
        "meta_element_set_no": 999,
        "meta_rev_at_epoch": 41717,
        "meta_bstar": 0.00016522,
        "meta_mean_motion_dot": 1.097e-05,
        "meta_mean_motion_ddot": 0,
        "tle_line1": "1 43260U 18031B   25360.25731177  .00001097  00000+0  16522-3 0  9992",
        "tle_line2": "2 43260  98.0780  57.9261 0001645 252.6735 107.4295 14.76426035417171"
      },
      "geometry": {
        "type": "Point",
        "coordinates": [
          9.772282837862772,
          79.24180763804885
        ]
      }
    }
  ]
}